CCSDS_OMM_VERS = 2.0
CREATION_DATE  = 
ORIGINATOR     = 

OBJECT_NAME    = ISS OBJECT YC
OBJECT_ID      = 1998-067YC
CENTER_NAME    = EARTH
REF_FRAME      = TEME
TIME_SYSTEM    = UTC
MEAN_ELEMENT_THEORY = SGP/SGP4

EPOCH          = 2026-03-05T01:59:19.055616
MEAN_MOTION    = 15.52157473
ECCENTRICITY   = .00077438
INCLINATION    = 51.6311
RA_OF_ASC_NODE = 94.6478
ARG_OF_PERICENTER = 134.4449
MEAN_ANOMALY   = 225.7176

EPHEMERIS_TYPE = 0
CLASSIFICATION_TYPE = U
NORAD_CAT_ID   = 67686
ELEMENT_SET_NO = 999
REV_AT_EPOCH   = 407
BSTAR          = .90337252E-3
MEAN_MOTION_DOT = .55661E-3
MEAN_MOTION_DDOT = 0

CCSDS_OMM_VERS = 2.0
CREATION_DATE  = 
ORIGINATOR     = 

OBJECT_NAME    = LEOPARD
OBJECT_ID      = 1998-067YD
CENTER_NAME    = EARTH
REF_FRAME      = TEME
TIME_SYSTEM    = UTC
MEAN_ELEMENT_THEORY = SGP/SGP4

EPOCH          = 2026-03-05T11:23:58.081056
MEAN_MOTION    = 15.51598294
ECCENTRICITY   = .00077829
INCLINATION    = 51.6307
RA_OF_ASC_NODE = 92.7649
ARG_OF_PERICENTER = 140.1506
MEAN_ANOMALY   = 220.0056

EPHEMERIS_TYPE = 0
CLASSIFICATION_TYPE = U
NORAD_CAT_ID   = 67687
ELEMENT_SET_NO = 999
REV_AT_EPOCH   = 405
BSTAR          = .77252404E-3
MEAN_MOTION_DOT = .46527E-3
MEAN_MOTION_DDOT = 0

CCSDS_OMM_VERS = 2.0
CREATION_DATE  = 
ORIGINATOR     = 

OBJECT_NAME    = ISS OBJECT YE
OBJECT_ID      = 1998-067YE
CENTER_NAME    = EARTH
REF_FRAME      = TEME
TIME_SYSTEM    = UTC
MEAN_ELEMENT_THEORY = SGP/SGP4

EPOCH          = 2026-03-04T12:07:23.752992
MEAN_MOTION    = 15.51890022
ECCENTRICITY   = .00077863
INCLINATION    = 51.6315
RA_OF_ASC_NODE = 97.5383
ARG_OF_PERICENTER = 134.7310
MEAN_ANOMALY   = 225.4314

EPHEMERIS_TYPE = 0
CLASSIFICATION_TYPE = U
NORAD_CAT_ID   = 67688
ELEMENT_SET_NO = 999
REV_AT_EPOCH   = 390
BSTAR          = .10599088E-2
MEAN_MOTION_DOT = .64836E-3
MEAN_MOTION_DDOT = 0

CCSDS_OMM_VERS = 2.0
CREATION_DATE  = 
ORIGINATOR     = 

OBJECT_NAME    = CZ-2F R/B
OBJECT_ID      = 2026-024B
CENTER_NAME    = EARTH
REF_FRAME      = TEME
TIME_SYSTEM    = UTC
MEAN_ELEMENT_THEORY = SGP/SGP4

EPOCH          = 2026-03-05T09:42:18.456192
MEAN_MOTION    = 15.34134415
ECCENTRICITY   = .01749091
INCLINATION    = 49.9876
RA_OF_ASC_NODE = 36.0888
ARG_OF_PERICENTER = 257.1168
MEAN_ANOMALY   = 101.0203

EPHEMERIS_TYPE = 0
CLASSIFICATION_TYPE = U
NORAD_CAT_ID   = 67690
ELEMENT_SET_NO = 999
REV_AT_EPOCH   = 403
BSTAR          = .40087569E-3
MEAN_MOTION_DOT = .21897E-3
MEAN_MOTION_DDOT = 0

CCSDS_OMM_VERS = 2.0
CREATION_DATE  = 
ORIGINATOR     = 

OBJECT_NAME    = CZ-2F DEB
OBJECT_ID      = 2026-024C
CENTER_NAME    = EARTH
REF_FRAME      = TEME
TIME_SYSTEM    = UTC
MEAN_ELEMENT_THEORY = SGP/SGP4

EPOCH          = 2026-03-05T14:33:11.726208
MEAN_MOTION    = 15.99060158
ECCENTRICITY   = .01453371
INCLINATION    = 49.9034
RA_OF_ASC_NODE = 26.4365
ARG_OF_PERICENTER = 272.5305
MEAN_ANOMALY   = 85.9050

EPHEMERIS_TYPE = 0
CLASSIFICATION_TYPE = U
NORAD_CAT_ID   = 67691
ELEMENT_SET_NO = 999
REV_AT_EPOCH   = 416
BSTAR          = .7017724E-3
MEAN_MOTION_DOT = .1252086E-1
MEAN_MOTION_DDOT = .11047612E-4

CCSDS_OMM_VERS = 2.0
CREATION_DATE  = 
ORIGINATOR     = 

OBJECT_NAME    = CZ-2F DEB
OBJECT_ID      = 2026-024D
CENTER_NAME    = EARTH
REF_FRAME      = TEME
TIME_SYSTEM    = UTC
MEAN_ELEMENT_THEORY = SGP/SGP4

EPOCH          = 2026-03-05T14:41:22.370208
MEAN_MOTION    = 15.23805721
ECCENTRICITY   = .023727
INCLINATION    = 50.3187
RA_OF_ASC_NODE = 38.7121
ARG_OF_PERICENTER = 263.9716
MEAN_ANOMALY   = 93.4161

EPHEMERIS_TYPE = 0
CLASSIFICATION_TYPE = U
NORAD_CAT_ID   = 67692
ELEMENT_SET_NO = 999
REV_AT_EPOCH   = 400
BSTAR          = .43913254E-2
MEAN_MOTION_DOT = .248314E-2
MEAN_MOTION_DDOT = 0

CCSDS_OMM_VERS = 2.0
CREATION_DATE  = 
ORIGINATOR     = 

OBJECT_NAME    = STARLINK-36748
OBJECT_ID      = 2026-025A
CENTER_NAME    = EARTH
REF_FRAME      = TEME
TIME_SYSTEM    = UTC
MEAN_ELEMENT_THEORY = SGP/SGP4

EPOCH          = 2026-03-05T06:51:14.524992
MEAN_MOTION    = 15.75262076
ECCENTRICITY   = .0001606
INCLINATION    = 97.2835
RA_OF_ASC_NODE = 175.6002
ARG_OF_PERICENTER = 67.9280
MEAN_ANOMALY   = 292.2156

EPHEMERIS_TYPE = 0
CLASSIFICATION_TYPE = U
NORAD_CAT_ID   = 67693
ELEMENT_SET_NO = 999
REV_AT_EPOCH   = 524
BSTAR          = .11572737E-2
MEAN_MOTION_DOT = .176653E-2
MEAN_MOTION_DDOT = 0

CCSDS_OMM_VERS = 2.0
CREATION_DATE  = 
ORIGINATOR     = 

OBJECT_NAME    = STARLINK-36753
OBJECT_ID      = 2026-025B
CENTER_NAME    = EARTH
REF_FRAME      = TEME
TIME_SYSTEM    = UTC
MEAN_ELEMENT_THEORY = SGP/SGP4

EPOCH          = 2026-03-05T14:00:01.999872
MEAN_MOTION    = 15.75166788
ECCENTRICITY   = .00011299
INCLINATION    = 97.2843
RA_OF_ASC_NODE = 175.9293
ARG_OF_PERICENTER = 82.0780
MEAN_ANOMALY   = 209.4762

EPHEMERIS_TYPE = 0
CLASSIFICATION_TYPE = U
NORAD_CAT_ID   = 67694
ELEMENT_SET_NO = 999
REV_AT_EPOCH   = 535
BSTAR          = .24138555E-3
MEAN_MOTION_DOT = .35989E-3
MEAN_MOTION_DDOT = 0

CCSDS_OMM_VERS = 2.0
CREATION_DATE  = 
ORIGINATOR     = 

OBJECT_NAME    = STARLINK-36750
OBJECT_ID      = 2026-025C
CENTER_NAME    = EARTH
REF_FRAME      = TEME
TIME_SYSTEM    = UTC
MEAN_ELEMENT_THEORY = SGP/SGP4

EPOCH          = 2026-03-05T05:57:58.109472
MEAN_MOTION    = 15.80922603
ECCENTRICITY   = .00012586
INCLINATION    = 97.2837
RA_OF_ASC_NODE = 175.6515
ARG_OF_PERICENTER = 166.0920
MEAN_ANOMALY   = 194.0383

EPHEMERIS_TYPE = 0
CLASSIFICATION_TYPE = U
NORAD_CAT_ID   = 67695
ELEMENT_SET_NO = 999
REV_AT_EPOCH   = 524
BSTAR          = .19907058E-2
MEAN_MOTION_DOT = .401198E-2
MEAN_MOTION_DDOT = 0

CCSDS_OMM_VERS = 2.0
CREATION_DATE  = 
ORIGINATOR     = 

OBJECT_NAME    = STARLINK-36401
OBJECT_ID      = 2026-025D
CENTER_NAME    = EARTH
REF_FRAME      = TEME
TIME_SYSTEM    = UTC
MEAN_ELEMENT_THEORY = SGP/SGP4

EPOCH          = 2026-03-05T06:20:14.556768
MEAN_MOTION    = 15.75282581
ECCENTRICITY   = .00013378
INCLINATION    = 97.2851
RA_OF_ASC_NODE = 175.6299
ARG_OF_PERICENTER = 62.6277
MEAN_ANOMALY   = 297.5124

EPHEMERIS_TYPE = 0
CLASSIFICATION_TYPE = U
NORAD_CAT_ID   = 67696
ELEMENT_SET_NO = 999
REV_AT_EPOCH   = 524
BSTAR          = .16518853E-2
MEAN_MOTION_DOT = .254771E-2
MEAN_MOTION_DDOT = 0

CCSDS_OMM_VERS = 2.0
CREATION_DATE  = 
ORIGINATOR     = 

OBJECT_NAME    = STARLINK-36704
OBJECT_ID      = 2026-025E
CENTER_NAME    = EARTH
REF_FRAME      = TEME
TIME_SYSTEM    = UTC
MEAN_ELEMENT_THEORY = SGP/SGP4

EPOCH          = 2026-03-05T14:14:24.050688
MEAN_MOTION    = 15.75371526
ECCENTRICITY   = .0001121
INCLINATION    = 97.2845
RA_OF_ASC_NODE = 175.9448
ARG_OF_PERICENTER = 99.2960
MEAN_ANOMALY   = 260.8432

EPHEMERIS_TYPE = 0
CLASSIFICATION_TYPE = U
NORAD_CAT_ID   = 67697
ELEMENT_SET_NO = 999
REV_AT_EPOCH   = 529
BSTAR          = .28083055E-2
MEAN_MOTION_DOT = .444816E-2
MEAN_MOTION_DDOT = 0

