ISS OBJECT YC           
1 67686U 98067YC  26064.08285944  .00055661  00000+0  90337-3 0  9998
2 67686  51.6311  94.6478 0007743 134.4449 225.7176 15.52157473  4071
LEOPARD                 
1 67687U 98067YD  26064.47497779  .00046527  00000+0  77252-3 0  9995
2 67687  51.6307  92.7649 0007782 140.1506 220.0056 15.51598294  4059
ISS OBJECT YE           
1 67688U 98067YE  26063.50513603  .00064836  00000+0  10599-2 0  9997
2 67688  51.6315  97.5383 0007786 134.7310 225.4314 15.51890022  3906
CZ-2F R/B               
1 67690U 26024B   26064.40438028  .00021897  00000+0  40088-3 0  9998
2 67690  49.9876  36.0888 0174909 257.1168 101.0203 15.34134415  4031
CZ-2F DEB               
1 67691U 26024C   26064.60638572  .01252086  11048-4  70177-3 0  9995
2 67691  49.9034  26.4365 0145337 272.5305  85.9050 15.99060158  4165
CZ-2F DEB               
1 67692U 26024D   26064.61206447  .00248314  00000+0  43913-2 0  9995
2 67692  50.3187  38.7121 0237270 263.9716  93.4161 15.23805721  4005
STARLINK-36748          
1 67693U 26025A   26064.28558478  .00176653  00000+0  11573-2 0  9997
2 67693  97.2835 175.6002 0001606  67.9280 292.2156 15.75262076  5242
STARLINK-36753          
1 67694U 26025B   26064.58335648  .00035989  00000+0  24139-3 0  9992
2 67694  97.2843 175.9293 0001129  82.0780 209.4762 15.75166788  5358
STARLINK-36750          
1 67695U 26025C   26064.24858923  .00401198  00000+0  19907-2 0  9997
2 67695  97.2837 175.6515 0001258 166.0920 194.0383 15.80922603  5246
STARLINK-36401          
1 67696U 26025D   26064.26405737  .00254771  00000+0  16519-2 0  9990
2 67696  97.2851 175.6299 0001337  62.6277 297.5124 15.75282581  5246
STARLINK-36704          
1 67697U 26025E   26064.59333392  .00444816  00000+0  28083-2 0  9994
2 67697  97.2845 175.9448 0001121  99.2960 260.8432 15.75371526  5293
